[{"OBJECT_NAME":"STARLINK-2113","OBJECT_ID":"2021-005AV","EPOCH":"2026-03-09T22:00:01.999584","MEAN_MOTION":15.5817622,"ECCENTRICITY":0.00052189,"INCLINATION":53.0529,"RA_OF_ASC_NODE":15.2698,"ARG_OF_PERICENTER":117.6872,"MEAN_ANOMALY":84.8234,"EPHEMERIS_TYPE":0,"CLASSIFICATION_TYPE":"U","NORAD_CAT_ID":47392,"ELEMENT_SET_NO":999,"REV_AT_EPOCH":587,"BSTAR":0.0015913714,"MEAN_MOTION_DOT":0.00123694,"MEAN_MOTION_DDOT":0},{"OBJECT_NAME":"AUREOLE 1","OBJECT_ID":"1971-119A","EPOCH":"2026-03-09T23:19:00.501312","MEAN_MOTION":13.98710975,"ECCENTRICITY":0.07087399,"INCLINATION":73.9466,"RA_OF_ASC_NODE":261.9601,"ARG_OF_PERICENTER":124.7307,"MEAN_ANOMALY":242.2688,"EPHEMERIS_TYPE":0,"CLASSIFICATION_TYPE":"U","NORAD_CAT_ID":5729,"ELEMENT_SET_NO":999,"REV_AT_EPOCH":62783,"BSTAR":0.00055955655,"MEAN_MOTION_DOT":8.283e-5,"MEAN_MOTION_DDOT":0}]
